{"fetched_at":"2026-03-30T06:02:59Z","count":15439,"tles":[{"name":"STARLINK-3593","line1":"1 51896U 22022AW  26087.89857465  .00000657  00000+0  59393-4 0  9992","line2":"2 51896  53.2169 273.1108 0001367  89.9377 270.1772 15.08841419226196","category":"Starlink"}]}